NORAD_CAT_ID,OBJECT_NAME,OBJECT_TYPE,EPOCH,MEAN_MOTION,ECCENTRICITY,INCLINATION,RA_OF_ASC_NODE,ARG_OF_PERICENTER,MEAN_ANOMALY,BSTAR,MEAN_MOTION_DOT,MEAN_MOTION_DDOT,TLE_LINE0,TLE_LINE1,TLE_LINE2,SEMIMAJOR_AXIS,PERIOD,APOGEE,PERIGEE,DECAYED
52264.0,STARLINK-3795,PAYLOAD,2022-09-30 11:10:01,15.08825303,0.0001646,53.2178,348.5291,54.0699,306.0446,0.0006228,9.634e-05,0.0,0 STARLINK-3795,1 52264U 22041D   22273.46529079  .00009634  00000-0  62280-3 0  9999,2 52264  53.2178 348.5291 0001646  54.0699 306.0446 15.08825303 24711,6917.925,95.438,540.929,538.6519999999998,0.0
52264.0,STARLINK-3795,PAYLOAD,2022-09-30 14:20:47,15.08837034,0.0001716,53.2179,347.9345,53.9964,306.1187,0.0011248,0.00017657,0.0,0 STARLINK-3795,1 52264U 22041D   22273.59777161  .00017657  00000-0  11248-2 0  9991,2 52264  53.2179 347.9345 0001716  53.9964 306.1187 15.08837034 24735,6917.889,95.438,540.942,538.567,0.0
52264.0,STARLINK-3795,PAYLOAD,2022-10-01 11:00:47,15.08872491,0.0001799,53.2178,344.0685,55.1498,304.9663,0.0012087,0.00019018,0.0,0 STARLINK-3795,1 52264U 22041D   22274.45888166  .00019018  00000-0  12087-2 0  9990,2 52264  53.2178 344.0685 0001799  55.1498 304.9663 15.08872491 24861,6917.781,95.435,540.891,538.4019999999998,0.0
52264.0,STARLINK-3795,PAYLOAD,2022-10-01 22:08:28,15.08871623,0.0001906999999999,53.2178,341.987,53.294,306.8227,0.00084798,0.00013245,0.0,0 STARLINK-3795,1 52264U 22041D   22274.92255705  .00013245  00000-0  84798-3 0  9994,2 52264  53.2178 341.9870 0001907  53.2940 306.8227 15.08871623 26141,6917.784000000002,95.436,540.9680000000002,538.33,0.0
52264.0,STARLINK-3795,PAYLOAD,2022-10-02 10:51:34,15.08837329,0.0001964,53.2184,339.6087,57.5937,302.5245,0.0010789,0.00016923,0.0,0 STARLINK-3795,1 52264U 22041D   22275.45248082  .00016923  00000-0  10789-2 0  9997,2 52264  53.2184 339.6087 0001964  57.5937 302.5245 15.08837329 26225,6917.889,95.438,541.112,538.395,0.0
52264.0,STARLINK-3795,PAYLOAD,2022-10-02 15:37:43,15.08843153,0.0001774,53.2182,338.7161,52.179,307.9363,0.00040993,6.243e-05,0.0,0 STARLINK-3795,1 52264U 22041D   22275.65120022  .00006243  00000-0  40993-3 0  9997,2 52264  53.2182 338.7161 0001774  52.1790 307.9363 15.08843153 25044,6917.871,95.437,540.9630000000002,538.509,0.0
52264.0,STARLINK-3795,PAYLOAD,2022-10-03 10:42:21,15.08857505,0.0001724,53.219,335.1479,45.3492,314.7641,0.00071021,0.00011038,0.0,0 STARLINK-3795,1 52264U 22041D   22276.44607663  .00011038  00000-0  71021-3 0  9990,2 52264  53.2190 335.1479 0001724  45.3492 314.7641 15.08857505 25168,6917.8269999999975,95.436,540.885,538.499,0.0
52264.0,STARLINK-3795,PAYLOAD,2022-10-03 15:28:30,15.08851481,0.0001664,53.2185,334.2559,37.7776,322.3333,0.00061163,9.463e-05,0.0,0 STARLINK-3795,1 52264U 22041D   22276.64479537  .00009463  00000-0  61163-3 0  9994,2 52264  53.2185 334.2559 0001664  37.7776 322.3333 15.08851481 26402,6917.845,95.437,540.861,538.559,0.0
52264.0,STARLINK-3795,PAYLOAD,2022-10-04 08:57:45,15.08839525,0.0001654,53.2184,330.985,50.1383,309.9755,0.0001151,1.544e-05,0.0,0 STARLINK-3795,1 52264U 22041D   22277.37343759  .00001544  00000-0  11510-3 0  9994,2 52264  53.2184 330.9850 0001654  50.1383 309.9755 15.08839525 26516,6917.882,95.438,540.891,538.6030000000002,0.0
52264.0,STARLINK-3795,PAYLOAD,2022-10-05 11:59:18,15.08838816,0.0001821,53.2189,325.9305,46.01300000000001,314.1012,0.00018902,2.721e-05,0.0,0 STARLINK-3795,1 52264U 22041D   22278.49951567  .00002721  00000-0  18902-3 0  9990,2 52264  53.2189 325.9305 0001821  46.0130 314.1012 15.08838816 26684,6917.884,95.438,541.009,538.489,0.0
52264.0,STARLINK-3795,PAYLOAD,2022-10-06 11:50:05,15.08841068,0.0002021999999999,53.2192,321.4701,40.4033,319.7109,0.000146,2.036e-05,0.0,0 STARLINK-3795,1 52264U 22041D   22279.49311594  .00002036  00000-0  14600-3 0  9991,2 52264  53.2192 321.4701 0002022  40.4033 319.7109 15.08841068 25627,6917.877,95.437,541.141,538.3430000000002,0.0
52264.0,STARLINK-3795,PAYLOAD,2022-10-06 19:47:01,15.0882359,0.000161,53.2184,319.9826,62.9277,297.188,0.00025225,3.727e-05,0.0,0 STARLINK-3795,1 52264U 22041D   22279.82432612  .00003727  00000-0  25225-3 0  9996,2 52264  53.2184 319.9826 0001610  62.9277 297.1880 15.08823590 26883,6917.931,95.439,540.909,538.682,0.0
52264.0,STARLINK-3795,PAYLOAD,2022-10-07 08:30:06,15.08841216,0.0001743,53.2183,317.6035,48.7393,311.3749,1.2245e-05,-9.3e-07,0.0,0 STARLINK-3795,1 52264U 22041D   22280.35424046 -.00000093  00000-0  12245-4 0  9991,2 52264  53.2183 317.6035 0001743  48.7393 311.3749 15.08841216 26964,6917.877,95.437,540.947,538.536,0.0
52264.0,STARLINK-3795,PAYLOAD,2022-10-07 11:40:52,15.08844133,0.0001761,53.2184,317.0089,54.0496,306.0659,3.2021e-05,2.22e-06,0.0,0 STARLINK-3795,1 52264U 22041D   22280.48671763  .00000222  00000-0  32021-4 0  9992,2 52264  53.2184 317.0089 0001761  54.0496 306.0659 15.08844133 25772,6917.868,95.437,540.951,538.515,0.0
52264.0,STARLINK-3795,PAYLOAD,2022-10-07 19:37:48,15.08843611,0.0001811999999999,53.2184,315.5219,50.1138,310.0013,5.7720000000000025e-06,-1.96e-06,0.0,0 STARLINK-3795,1 52264U 22041D   22280.81791816 -.00000196  00000-0  57720-5 0  9996,2 52264  53.2184 315.5219 0001812  50.1138 310.0013 15.08843611 25822,6917.869000000002,95.437,540.988,538.481,0.0
52264.0,STARLINK-3795,PAYLOAD,2022-10-08 11:31:40,15.0883644,0.0001691,53.2185,312.5479,53.0371,307.0776,1.806e-06,-2.59e-06,0.0,0 STARLINK-3795,1 52264U 22041D   22281.48032447 -.00000259  00000-0  18060-5 0  9992,2 52264  53.2185 312.5479 0001691  53.0371 307.0776 15.08836440 27134,6917.891,95.438,540.9259999999998,538.586,0.0
52264.0,STARLINK-3795,PAYLOAD,2022-10-08 19:28:35,15.08846045,0.000175,53.2186,311.0613,49.4277,310.6867,5.9049e-05,6.52e-06,0.0,0 STARLINK-3795,1 52264U 22041D   22281.81151710  .00000652  00000-0  59049-4 0  9991,2 52264  53.2186 311.0613 0001750  49.4277 310.6867 15.08846045 27187,6917.861999999999,95.437,540.938,538.516,0.0
52264.0,STARLINK-3795,PAYLOAD,2022-10-09 09:47:03,15.08845741,0.0001647,53.2187,308.3844,54.7379,305.3767,9.9717e-05,1.3e-05,0.0,0 STARLINK-3795,1 52264U 22041D   22282.40767536  .00001300  00000-0  99717-4 0  9993,2 52264  53.2187 308.3844 0001647  54.7379 305.3767 15.08845741 26068,6917.863,95.437,540.867,538.5880000000002,0.0
52264.0,STARLINK-3795,PAYLOAD,2022-10-09 19:19:22,15.08838483,0.0001714,53.2186,306.6002,50.021,310.0932,1.0249e-05,-1.25e-06,0.0,0 STARLINK-3795,1 52264U 22041D   22282.80512212 -.00000125  00000-0  10249-4 0  9994,2 52264  53.2186 306.6002 0001714  50.0210 310.0932 15.08838483 27335,6917.885,95.438,540.936,538.564,0.0
52264.0,STARLINK-3795,PAYLOAD,2022-10-10 09:37:50,15.08838048,0.0001710999999999,53.2186,303.9240000000001,48.3,311.8139,9.2772e-05,1.189e-05,0.0,0 STARLINK-3795,1 52264U 22041D   22283.40128184  .00001189  00000-0  92772-4 0  9993,2 52264  53.2186 303.9240 0001711  48.3000 311.8139 15.08838048 26214,6917.886,95.438,540.935,538.568,0.0
52264.0,STARLINK-3795,PAYLOAD,2022-10-11 11:04:01,15.08829971,0.0001753,53.2183,299.1665,48.8713,311.243,-6.7468e-05,-1.361e-05,0.0,0 STARLINK-3795,1 52264U 22041D   22284.46113222 -.00001361  00000-0 -67468-4 0  9995,2 52264  53.2183 299.1665 0001753  48.8713 311.2430 15.08829971 27584,6917.911,95.438,540.989,538.563,0.0
52264.0,STARLINK-3795,PAYLOAD,2022-10-12 10:54:48,15.08836135,0.0001825,53.2184,294.7068,46.0811,314.0331,4.8803e-05,4.89e-06,0.0,0 STARLINK-3795,1 52264U 22041D   22285.45473166  .00000489  00000-0  48803-4 0  9991,2 52264  53.2184 294.7068 0001825  46.0811 314.0331 15.08836135 27730,6917.892,95.438,541.02,538.495,0.0
52264.0,STARLINK-3795,PAYLOAD,2022-10-13 12:20:59,15.08828333,0.0001883,53.218,289.9491,40.1596,319.9535,4.4524e-05,4.2e-06,0.0,0 STARLINK-3795,1 52264U 22041D   22286.51458191  .00000420  00000-0  44524-4 0  9991,2 52264  53.2180 289.9491 0001883  40.1596 319.9535 15.08828333 26685,6917.916,95.438,541.0840000000002,538.4780000000002,0.0
52264.0,STARLINK-3795,PAYLOAD,2022-10-14 04:14:50,15.0884325,0.0001795,53.218,286.9755,47.5293,312.5851,9.0044e-05,1.145e-05,0.0,0 STARLINK-3795,1 52264U 22041D   22287.17697380  .00001145  00000-0  90044-4 0  9992,2 52264  53.2180 286.9755 0001795  47.5293 312.5851 15.08843250 27992,6917.87,95.437,540.977,538.494,0.0
52264.0,STARLINK-3795,PAYLOAD,2022-10-14 12:11:46,15.08839878,0.000178,53.2186,285.4888,44.8794,315.2342,3.5949000000000004e-05,2.84e-06,0.0,0 STARLINK-3795,1 52264U 22041D   22287.50817788  .00000284  00000-0  35949-4 0  9991,2 52264  53.2186 285.4888 0001780  44.8794 315.2342 15.08839878 26837,6917.880999999999,95.438,540.977,538.514,0.0
52264.0,STARLINK-3795,PAYLOAD,2022-10-14 16:57:55,15.08846073,0.0001565999999999,53.2184,284.5968,43.7709,316.3407,7.143899999999999e-05,8.49e-06,0.0,0 STARLINK-3795,1 52264U 22041D   22287.70689157  .00000849  00000-0  71439-4 0  9991,2 52264  53.2184 284.5968 0001566  43.7709 316.3407 15.08846073 26862,6917.861999999999,95.437,540.81,538.643,0.0
52264.0,STARLINK-3795,PAYLOAD,2022-10-15 12:02:32,15.08849936,0.0001806,53.2177,281.0291,58.8019,301.315,9.6444e-05,1.248e-05,0.0,0 STARLINK-3795,1 52264U 22041D   22288.50176752  .00001248  00000-0  96444-4 0  9999,2 52264  53.2177 281.0291 0001806  58.8019 301.3150 15.08849936 28191,6917.85,95.437,540.964,538.466,0.0
52264.0,STARLINK-3795,PAYLOAD,2022-10-15 16:48:42,15.08841747,0.000197,53.2181,280.1359,51.6745,308.4424,0.00010273,1.347e-05,0.0,0 STARLINK-3795,1 52264U 22041D   22288.70049360  .00001347  00000-0  10273-3 0  9990,2 52264  53.2181 280.1359 0001970  51.6745 308.4424 15.08841747 28228,6917.875,95.437,541.1030000000002,538.377,0.0
52264.0,STARLINK-3795,PAYLOAD,2022-10-16 08:42:34,15.08835723,0.000185,53.2175,277.1626,47.165,312.9497,3.427e-05,2.57e-06,0.0,0 STARLINK-3795,1 52264U 22041D   22289.36289629  .00000257  00000-0  34270-4 0  9990,2 52264  53.2175 277.1626 0001850  47.1650 312.9497 15.08835723 28324,6917.893,95.438,541.038,538.479,0.0
